1998-067TR              
1 53306U 98067TR  22240.49385741  .00031808  00000+0  51494-3 0  9993
2 53306  51.6426 338.0537 0001312 162.6467 197.4568 15.52514889  5880
1998-067TS              
1 53307U 98067TS  22240.49350861  .00031628  00000+0  51196-3 0  9998
2 53307  51.6423 338.0499 0001488 138.3311 221.7792 15.52520895  5915
RS3S                    
1 53308U 98067TT  22240.49324276  .00031130  00000+0  50416-3 0  9992
2 53308  51.6425 338.0491 0001287 143.8023 216.3055 15.52515025  5942
RS1S                    
1 53309U 98067TU  22240.49221843  .00030942  00000+0  49999-3 0  9993
2 53309  51.6422 338.0414 0001628 178.2339 181.8657 15.52580629  5896
RS5S                    
1 53310U 98067TV  22240.49280500  .00030403  00000+0  49283-3 0  9998
2 53310  51.6427 338.0469 0001393 180.3504 179.7485 15.52502055  5926
RS6S                    
1 53311U 98067TW  22240.49001418  .00032122  00000+0  51621-3 0  9997
2 53311  51.6421 338.0266 0001147 120.7991 239.3112 15.52714547  5944
RS9S                    
1 53312U 98067TX  22240.55529606  .00032141  00000+0  51787-3 0  9993
2 53312  51.6426 337.7131 0001776 183.7537 176.3440 15.52641148  5894
RS12S                   
1 53313U 98067TY  22240.36113378  .00031446  00000+0  50637-3 0  9998
2 53313  51.6426 338.6667 0001400 193.8170 166.2782 15.52669369  5913
RS4S                    
1 53321U 98067TZ  22240.49372764  .00031333  00000+0  50747-3 0  9994
2 53321  51.6428 338.0540 0001240 158.1150 201.9893 15.52510357  5936
1998-067UA              
1 53322U 98067UA  22240.49320969  .00032224  00000+0  52082-3 0  9999
2 53322  51.6425 338.0489 0001241 149.8955 210.2107 15.52553997  5889
HSU-SAT1                
1 53462U 98067UB  22239.54334727  .00020190  00000+0  34025-3 0  9991
2 53462  51.6426 342.9515 0006356 190.9888 169.0964 15.51648195  2369
FUTABA                  
1 53463U 98067UC  22239.47791656  .00024704  00000+0  41200-3 0  9990
2 53463  51.6425 343.2657 0006072 192.2825 167.8018 15.51810014  2357
TUMNANOSAT              
1 53464U 98067UD  22240.37830999  .00030874  00000+0  50851-3 0  9993
2 53464  51.6419 338.7788 0006198 196.6468 163.4319 15.52032299  2498
DRAGON CRS-25 DEB       
1 53584U 22081B   22240.49553193  .02504553  11659-4  83639-3 0  9999
2 53584  51.6310 334.7631 0072364 207.1889 263.0262 16.18143912  6954
